[{"OBJECT_NAME":"STARLINK-37148","OBJECT_ID":"2026-057S","EPOCH":"2026-03-27T20:00:01.999008","MEAN_MOTION":16.05604347,"ECCENTRICITY":0.0001149,"INCLINATION":97.2799,"RA_OF_ASC_NODE":209.8714,"ARG_OF_PERICENTER":74.9639,"MEAN_ANOMALY":174.3503,"EPHEMERIS_TYPE":0,"CLASSIFICATION_TYPE":"U","NORAD_CAT_ID":68310,"ELEMENT_SET_NO":999,"REV_AT_EPOCH":217,"BSTAR":-0.0013037,"MEAN_MOTION_DOT":-0.00915437,"MEAN_MOTION_DDOT":0.0002972},{"OBJECT_NAME":"STARLINK-37140","OBJECT_ID":"2026-057T","EPOCH":"2026-03-27T18:00:01.999296","MEAN_MOTION":16.05631123,"ECCENTRICITY":0.0001166,"INCLINATION":97.28,"RA_OF_ASC_NODE":209.7791,"ARG_OF_PERICENTER":83.8893,"MEAN_ANOMALY":42.0956,"EPHEMERIS_TYPE":0,"CLASSIFICATION_TYPE":"U","NORAD_CAT_ID":68311,"ELEMENT_SET_NO":999,"REV_AT_EPOCH":232,"BSTAR":-0.001296,"MEAN_MOTION_DOT":-0.00911547,"MEAN_MOTION_DDOT":0.00029496},{"OBJECT_NAME":"STARLINK-36854","OBJECT_ID":"2026-057U","EPOCH":"2026-03-27T20:00:01.999008","MEAN_MOTION":16.05719418,"ECCENTRICITY":0.0001236,"INCLINATION":97.2799,"RA_OF_ASC_NODE":209.8725,"ARG_OF_PERICENTER":68.6132,"MEAN_ANOMALY":182.629,"EPHEMERIS_TYPE":0,"CLASSIFICATION_TYPE":"U","NORAD_CAT_ID":68312,"ELEMENT_SET_NO":999,"REV_AT_EPOCH":212,"BSTAR":-0.0012835,"MEAN_MOTION_DOT":-0.00907668,"MEAN_MOTION_DDOT":0.00029295},{"OBJECT_NAME":"STARLINK-36815","OBJECT_ID":"2026-057V","EPOCH":"2026-03-27T20:00:01.999008","MEAN_MOTION":16.05884159,"ECCENTRICITY":0.0001111,"INCLINATION":97.2801,"RA_OF_ASC_NODE":209.8736,"ARG_OF_PERICENTER":85.234,"MEAN_ANOMALY":168.3499,"EPHEMERIS_TYPE":0,"CLASSIFICATION_TYPE":"U","NORAD_CAT_ID":68313,"ELEMENT_SET_NO":999,"REV_AT_EPOCH":212,"BSTAR":-0.0013195,"MEAN_MOTION_DOT":-0.00942232,"MEAN_MOTION_DDOT":0.00031458},{"OBJECT_NAME":"STARLINK-37155","OBJECT_ID":"2026-057W","EPOCH":"2026-03-27T20:00:01.999008","MEAN_MOTION":16.06197888,"ECCENTRICITY":0.0001093,"INCLINATION":97.2797,"RA_OF_ASC_NODE":209.8755,"ARG_OF_PERICENTER":72.1467,"MEAN_ANOMALY":186.3393,"EPHEMERIS_TYPE":0,"CLASSIFICATION_TYPE":"U","NORAD_CAT_ID":68314,"ELEMENT_SET_NO":999,"REV_AT_EPOCH":217,"BSTAR":-0.0013179,"MEAN_MOTION_DOT":-0.00959202,"MEAN_MOTION_DDOT":0.00032641},{"OBJECT_NAME":"STARLINK-37150","OBJECT_ID":"2026-057X","EPOCH":"2026-03-27T12:00:02.000160","MEAN_MOTION":16.06686012,"ECCENTRICITY":0.00012647,"INCLINATION":97.2801,"RA_OF_ASC_NODE":209.5092,"ARG_OF_PERICENTER":59.0526,"MEAN_ANOMALY":70.8624,"EPHEMERIS_TYPE":0,"CLASSIFICATION_TYPE":"U","NORAD_CAT_ID":68315,"ELEMENT_SET_NO":999,"REV_AT_EPOCH":212,"BSTAR":-0.0013344136,"MEAN_MOTION_DOT":-0.01000524,"MEAN_MOTION_DDOT":0.00035503914},{"OBJECT_NAME":"STARLINK-37154","OBJECT_ID":"2026-057Y","EPOCH":"2026-03-27T12:00:02.000160","MEAN_MOTION":16.07138483,"ECCENTRICITY":0.00011865,"INCLINATION":97.2796,"RA_OF_ASC_NODE":209.5122,"ARG_OF_PERICENTER":67.6747,"MEAN_ANOMALY":68.9334,"EPHEMERIS_TYPE":0,"CLASSIFICATION_TYPE":"U","NORAD_CAT_ID":68316,"ELEMENT_SET_NO":999,"REV_AT_EPOCH":202,"BSTAR":-0.0012717362,"MEAN_MOTION_DOT":-0.00980804,"MEAN_MOTION_DDOT":0.0003441348},{"OBJECT_NAME":"STARLINK-37139","OBJECT_ID":"2026-057Z","EPOCH":"2026-03-27T12:00:02.000160","MEAN_MOTION":16.06995092,"ECCENTRICITY":0.00013149,"INCLINATION":97.2796,"RA_OF_ASC_NODE":209.511,"ARG_OF_PERICENTER":65.0539,"MEAN_ANOMALY":69.2841,"EPHEMERIS_TYPE":0,"CLASSIFICATION_TYPE":"U","NORAD_CAT_ID":68317,"ELEMENT_SET_NO":999,"REV_AT_EPOCH":187,"BSTAR":-0.0013233092,"MEAN_MOTION_DOT":-0.01011274,"MEAN_MOTION_DDOT":0.00036351799},{"OBJECT_NAME":"STARLINK-37113","OBJECT_ID":"2026-057AA","EPOCH":"2026-03-27T12:00:02.000160","MEAN_MOTION":16.07305565,"ECCENTRICITY":0.00012552,"INCLINATION":97.2796,"RA_OF_ASC_NODE":209.5131,"ARG_OF_PERICENTER":64.1802,"MEAN_ANOMALY":74.8174,"EPHEMERIS_TYPE":0,"CLASSIFICATION_TYPE":"U","NORAD_CAT_ID":68318,"ELEMENT_SET_NO":999,"REV_AT_EPOCH":212,"BSTAR":-0.0012606992,"MEAN_MOTION_DOT":-0.00982452,"MEAN_MOTION_DDOT":0.00034592839},{"OBJECT_NAME":"PROGRESS-MS 33","OBJECT_ID":"2026-058A","EPOCH":"2026-03-27T20:12:32.650848","MEAN_MOTION":15.48591753,"ECCENTRICITY":0.0006212,"INCLINATION":51.6344,"RA_OF_ASC_NODE":342.6225,"ARG_OF_PERICENTER":240.1567,"MEAN_ANOMALY":119.8804,"EPHEMERIS_TYPE":0,"CLASSIFICATION_TYPE":"U","NORAD_CAT_ID":68319,"ELEMENT_SET_NO":999,"REV_AT_EPOCH":59,"BSTAR":0.00022728,"MEAN_MOTION_DOT":0.0001192,"MEAN_MOTION_DDOT":0},{"OBJECT_NAME":"CENTISPACE-1 OBJECT A","OBJECT_ID":"2026-060A","EPOCH":"2026-03-27T12:23:45.710592","MEAN_MOTION":14.74893358,"ECCENTRICITY":0.0012949,"INCLINATION":54.9872,"RA_OF_ASC_NODE":8.8951,"ARG_OF_PERICENTER":307.3748,"MEAN_ANOMALY":52.6072,"EPHEMERIS_TYPE":0,"CLASSIFICATION_TYPE":"U","NORAD_CAT_ID":68350,"ELEMENT_SET_NO":999,"REV_AT_EPOCH":72,"BSTAR":3.3309e-5,"MEAN_MOTION_DOT":1.6e-7,"MEAN_MOTION_DDOT":0},{"OBJECT_NAME":"CENTISPACE-1 OBJECT B","OBJECT_ID":"2026-060B","EPOCH":"2026-03-26T11:59:46.275360","MEAN_MOTION":14.7492,"ECCENTRICITY":0.0012921,"INCLINATION":54.9834,"RA_OF_ASC_NODE":13.0446,"ARG_OF_PERICENTER":301.6406,"MEAN_ANOMALY":58.3332,"EPHEMERIS_TYPE":0,"CLASSIFICATION_TYPE":"U","NORAD_CAT_ID":68351,"ELEMENT_SET_NO":999,"REV_AT_EPOCH":57,"BSTAR":3.3361247e-5,"MEAN_MOTION_DOT":1.6e-7,"MEAN_MOTION_DDOT":0},{"OBJECT_NAME":"CENTISPACE-1 OBJECT C","OBJECT_ID":"2026-060C","EPOCH":"2026-03-27T18:53:04.731648","MEAN_MOTION":14.75105698,"ECCENTRICITY":0.0012459,"INCLINATION":54.9841,"RA_OF_ASC_NODE":7.7883,"ARG_OF_PERICENTER":311.7786,"MEAN_ANOMALY":48.2148,"EPHEMERIS_TYPE":0,"CLASSIFICATION_TYPE":"U","NORAD_CAT_ID":68352,"ELEMENT_SET_NO":999,"REV_AT_EPOCH":76,"BSTAR":3.1581e-5,"MEAN_MOTION_DOT":5.0e-8,"MEAN_MOTION_DDOT":0},{"OBJECT_NAME":"CENTISPACE-1 OBJECT D","OBJECT_ID":"2026-060D","EPOCH":"2026-03-27T05:52:15.047040","MEAN_MOTION":14.75150685,"ECCENTRICITY":0.0012593,"INCLINATION":54.9861,"RA_OF_ASC_NODE":10.0008,"ARG_OF_PERICENTER":310.5284,"MEAN_ANOMALY":49.4618,"EPHEMERIS_TYPE":0,"CLASSIFICATION_TYPE":"U","NORAD_CAT_ID":68353,"ELEMENT_SET_NO":999,"REV_AT_EPOCH":68,"BSTAR":3.3565e-5,"MEAN_MOTION_DOT":1.9e-7,"MEAN_MOTION_DDOT":0},{"OBJECT_NAME":"CENTISPACE-1 OBJECT E","OBJECT_ID":"2026-060E","EPOCH":"2026-03-27T18:52:36.267168","MEAN_MOTION":14.75183817,"ECCENTRICITY":0.0013025,"INCLINATION":54.9719,"RA_OF_ASC_NODE":7.7855,"ARG_OF_PERICENTER":311.5479,"MEAN_ANOMALY":48.4402,"EPHEMERIS_TYPE":0,"CLASSIFICATION_TYPE":"U","NORAD_CAT_ID":68354,"ELEMENT_SET_NO":999,"REV_AT_EPOCH":76,"BSTAR":3.1589e-5,"MEAN_MOTION_DOT":5.0e-8,"MEAN_MOTION_DDOT":0},{"OBJECT_NAME":"CENTISPACE-1 OBJECT F","OBJECT_ID":"2026-060F","EPOCH":"2026-03-27T12:22:10.019136","MEAN_MOTION":14.7522387,"ECCENTRICITY":0.0013558,"INCLINATION":54.979,"RA_OF_ASC_NODE":8.8902,"ARG_OF_PERICENTER":311.9583,"MEAN_ANOMALY":48.026,"EPHEMERIS_TYPE":0,"CLASSIFICATION_TYPE":"U","NORAD_CAT_ID":68355,"ELEMENT_SET_NO":999,"REV_AT_EPOCH":72,"BSTAR":3.2117e-5,"MEAN_MOTION_DOT":9.0e-8,"MEAN_MOTION_DDOT":0},{"OBJECT_NAME":"CENTISPACE-1 OBJECT G","OBJECT_ID":"2026-060G","EPOCH":"2026-03-27T12:21:46.365408","MEAN_MOTION":14.75314586,"ECCENTRICITY":0.001371,"INCLINATION":54.9884,"RA_OF_ASC_NODE":8.8926,"ARG_OF_PERICENTER":311.5348,"MEAN_ANOMALY":48.4475,"EPHEMERIS_TYPE":0,"CLASSIFICATION_TYPE":"U","NORAD_CAT_ID":68356,"ELEMENT_SET_NO":999,"REV_AT_EPOCH":72,"BSTAR":3.2088e-5,"MEAN_MOTION_DOT":9.0e-8,"MEAN_MOTION_DDOT":0},{"OBJECT_NAME":"CENTISPACE-1 OBJECT H","OBJECT_ID":"2026-060H","EPOCH":"2026-03-25T14:49:38.254368","MEAN_MOTION":14.75425125,"ECCENTRICITY":0.00144709,"INCLINATION":54.9848,"RA_OF_ASC_NODE":16.6351,"ARG_OF_PERICENTER":304.4277,"MEAN_ANOMALY":55.5354,"EPHEMERIS_TYPE":0,"CLASSIFICATION_TYPE":"U","NORAD_CAT_ID":68357,"ELEMENT_SET_NO":999,"REV_AT_EPOCH":44,"BSTAR":3.3491501e-5,"MEAN_MOTION_DOT":1.9e-7,"MEAN_MOTION_DDOT":0},{"OBJECT_NAME":"CENTISPACE-1 OBJECT J","OBJECT_ID":"2026-060J","EPOCH":"2026-03-25T14:49:37.060320","MEAN_MOTION":14.75435012,"ECCENTRICITY":0.0013871,"INCLINATION":54.9877,"RA_OF_ASC_NODE":16.6351,"ARG_OF_PERICENTER":306.1411,"MEAN_ANOMALY":53.8304,"EPHEMERIS_TYPE":0,"CLASSIFICATION_TYPE":"U","NORAD_CAT_ID":68358,"ELEMENT_SET_NO":999,"REV_AT_EPOCH":44,"BSTAR":3.3263e-5,"MEAN_MOTION_DOT":1.7e-7,"MEAN_MOTION_DDOT":0},{"OBJECT_NAME":"CENTISPACE-1 OBJECT K","OBJECT_ID":"2026-060K","EPOCH":"2026-03-27T05:50:41.212320","MEAN_MOTION":14.7549777,"ECCENTRICITY":0.0014498,"INCLINATION":54.9804,"RA_OF_ASC_NODE":9.9961,"ARG_OF_PERICENTER":310.3643,"MEAN_ANOMALY":49.609,"EPHEMERIS_TYPE":0,"CLASSIFICATION_TYPE":"U","NORAD_CAT_ID":68359,"ELEMENT_SET_NO":999,"REV_AT_EPOCH":68,"BSTAR":3.4313e-5,"MEAN_MOTION_DOT":2.5e-7,"MEAN_MOTION_DDOT":0},{"OBJECT_NAME":"SUPERVIEW NEO-2 OBJECT A","OBJECT_ID":"2026-062A","EPOCH":"2026-03-27T21:43:22.202112","MEAN_MOTION":15.20115818,"ECCENTRICITY":0.0008161,"INCLINATION":97.4377,"RA_OF_ASC_NODE":95.3601,"ARG_OF_PERICENTER":264.3018,"MEAN_ANOMALY":95.7286,"EPHEMERIS_TYPE":0,"CLASSIFICATION_TYPE":"U","NORAD_CAT_ID":68377,"ELEMENT_SET_NO":999,"REV_AT_EPOCH":30,"BSTAR":6.8801e-5,"MEAN_MOTION_DOT":1.419e-5,"MEAN_MOTION_DDOT":0},{"OBJECT_NAME":"SUPERVIEW NEO-2 OBJECT B","OBJECT_ID":"2026-062B","EPOCH":"2026-03-27T01:10:54.793056","MEAN_MOTION":15.20012563,"ECCENTRICITY":0.00103961,"INCLINATION":97.4356,"RA_OF_ASC_NODE":94.5245,"ARG_OF_PERICENTER":272.384,"MEAN_ANOMALY":87.6205,"EPHEMERIS_TYPE":0,"CLASSIFICATION_TYPE":"U","NORAD_CAT_ID":68378,"ELEMENT_SET_NO":999,"REV_AT_EPOCH":17,"BSTAR":0.00014872926,"MEAN_MOTION_DOT":3.139e-5,"MEAN_MOTION_DDOT":0},{"OBJECT_NAME":"CZ-2D R/B","OBJECT_ID":"2026-062C","EPOCH":"2026-03-27T21:23:25.308960","MEAN_MOTION":15.3099492,"ECCENTRICITY":0.0053813,"INCLINATION":97.4988,"RA_OF_ASC_NODE":95.1877,"ARG_OF_PERICENTER":54.8564,"MEAN_ANOMALY":305.7702,"EPHEMERIS_TYPE":0,"CLASSIFICATION_TYPE":"U","NORAD_CAT_ID":68379,"ELEMENT_SET_NO":999,"REV_AT_EPOCH":30,"BSTAR":0.00021583,"MEAN_MOTION_DOT":6.676e-5,"MEAN_MOTION_DDOT":0}]
